NORAD_CAT_ID,OBJECT_NAME,OBJECT_TYPE,EPOCH,MEAN_MOTION,ECCENTRICITY,INCLINATION,RA_OF_ASC_NODE,ARG_OF_PERICENTER,MEAN_ANOMALY,BSTAR,MEAN_MOTION_DOT,MEAN_MOTION_DDOT,TLE_LINE0,TLE_LINE1,TLE_LINE2,SEMIMAJOR_AXIS,PERIOD,APOGEE,PERIGEE,DECAYED
55644.0,STARLINK-5502,PAYLOAD,2023-06-09 22:00:00,15.29869399,0.000336,69.9993,196.4342,269.7164,245.2894,-0.031805,-0.00850721,0.0,0 STARLINK-5502,1 55644U 23021S   23160.91667824 -.00850721  00000-0 -31805-1 0  9990,2 55644  69.9993 196.4342 0003360 269.7164 245.2894 15.29869399 18102,6854.339,94.126,478.507,473.901,0.0
55644.0,STARLINK-5502,PAYLOAD,2023-06-10 06:00:02,15.29265089,0.0003374,69.9997,195.5521,270.1175,279.8933,-0.036286,-0.0095611,0.0,0 STARLINK-5502,1 55644U 23021S   23161.25002315 -.00956110  00000-0 -36286-1 0  9993,2 55644  69.9997 195.5521 0003374 270.1175 279.8933 15.29265089 18156,6856.145,94.163,480.323,475.697,0.0
55644.0,STARLINK-5502,PAYLOAD,2023-06-10 14:00:01,15.28600314,0.0003378,69.9994,194.6711,273.4568,310.6568,-0.035549,-0.00909187,0.0,0 STARLINK-5502,1 55644U 23021S   23161.58334491 -.00909187  00000-0 -35549-1 0  9995,2 55644  69.9994 194.6711 0003378 273.4568 310.6568 15.28600314  1300,6858.133,94.204,482.314,477.681,0.0
55644.0,STARLINK-5502,PAYLOAD,2023-06-10 22:00:00,15.27912202,0.0003368,69.9996,193.7909,266.8071,350.704,-0.033738,-0.00849724,0.0,0 STARLINK-5502,1 55644U 23021S   23161.91667824 -.00849724  00000-0 -33738-1 0  9999,2 55644  69.9996 193.7909 0003368 266.8071 350.7040 15.27912202 18258,6860.192,94.246,484.367,479.746,0.0
55644.0,STARLINK-5502,PAYLOAD,2023-06-11 06:00:00,15.27304632,0.0003438,69.9998,192.9115,268.8524,21.2541,-0.038311,-0.00950972,0.0,0 STARLINK-5502,1 55644U 23021S   23162.25001157 -.00950972  00000-0 -38311-1 0  9998,2 55644  69.9998 192.9115 0003438 268.8524  21.2541 15.27304632 18307,6862.011,94.284,486.235,481.517,0.0
55644.0,STARLINK-5502,PAYLOAD,2023-06-11 14:00:01,15.26654395,0.0003498,69.9995,192.0331,273.7641,48.1563,-0.038446,-0.00936737,0.0,0 STARLINK-5502,1 55644U 23021S   23162.58334491 -.00936737  00000-0 -38446-1 0  9996,2 55644  69.9995 192.0331 0003498 273.7641  48.1563 15.26654395  1303,6863.959,94.324,488.225,483.423,0.0
55644.0,STARLINK-5502,PAYLOAD,2023-06-11 22:00:00,15.25953026,0.0003459,69.9996,191.1557,268.1487,84.8273,-0.035633,-0.00845849,0.0,0 STARLINK-5502,1 55644U 23021S   23162.91667824 -.00845849  00000-0 -35633-1 0  9990,2 55644  69.9996 191.1557 0003459 268.1487  84.8273 15.25953026 18414,6866.062,94.367,490.302,485.552,0.0
55644.0,STARLINK-5502,PAYLOAD,2023-06-12 06:00:00,15.25345232,0.0003466,69.9997,190.279,271.0778,112.1472,-0.040525,-0.00948155,0.0,0 STARLINK-5502,1 55644U 23021S   23163.25001157 -.00948155  00000-0 -40525-1 0  9999,2 55644  69.9997 190.2790 0003466 271.0778 112.1472 15.25345232 18463,6867.886,94.405,492.131,487.371,0.0
55644.0,STARLINK-5502,PAYLOAD,2023-06-12 14:00:01,15.24704793,0.0003443,69.9992,189.4032,276.6932,136.0588,-0.041284,-0.00947531,0.0,0 STARLINK-5502,1 55644U 23021S   23163.58335648 -.00947531  00000-0 -41284-1 0  9990,2 55644  69.9992 189.4032 0003443 276.6932 136.0588 15.24704793  1303,6869.809,94.445,494.039,489.309,0.0
55644.0,STARLINK-5502,PAYLOAD,2023-06-12 22:00:00,15.23994821,0.0003349,69.9994,188.5284,270.4074,170.993,-0.037617,-0.00842157,0.0,0 STARLINK-5502,1 55644U 23021S   23163.91667824 -.00842157  00000-0 -37617-1 0  9994,2 55644  69.9994 188.5284 0003349 270.4074 170.9930 15.23994821 18564,6871.942,94.489,496.109,491.506,0.0
55644.0,STARLINK-5502,PAYLOAD,2023-06-13 00:00:00,15.23869775,0.0003209,69.9994,188.31,268.5439,269.8924,-0.040529,-0.00910007,0.0,0 STARLINK-5502,1 55644U 23021S   23164.00001157 -.00910007  00000-0 -40529-1 0  9992,2 55644  69.9994 188.3100 0003209 268.5439 269.8924 15.23869775  1301,6872.318,94.496,496.389,491.978,0.0
55644.0,STARLINK-5502,PAYLOAD,2023-06-13 06:00:02,15.23381971,0.0003341,69.9993,187.6545,272.6422,196.726,-0.042539,-0.00939107,0.0,0 STARLINK-5502,1 55644U 23021S   23164.25002315 -.00939107  00000-0 -42539-1 0  9991,2 55644  69.9993 187.6545 0003341 272.6422 196.7260 15.23381971 18610,6873.785,94.527,497.947,493.354,0.0
55644.0,STARLINK-5502,PAYLOAD,2023-06-13 14:00:01,15.22751717,0.0003256,69.9989,186.7813,277.3767,219.0412,-0.044134,-0.00954958,0.0,0 STARLINK-5502,1 55644U 23021S   23164.58334491 -.00954958  00000-0 -44134-1 0  9994,2 55644  69.9989 186.7813 0003256 277.3767 219.0412 15.22751717  1306,6875.682,94.566,499.786,495.308,0.0
55644.0,STARLINK-5502,PAYLOAD,2023-06-13 22:00:00,15.22040924,0.0003227,69.999,185.9092,270.1677,252.6143,-0.039989,-0.0084452,0.0,0 STARLINK-5502,1 55644U 23021S   23164.91667824 -.00844520  00000-0 -39989-1 0  9995,2 55644  69.9990 185.9092 0003227 270.1677 252.6143 15.22040924  1302,6877.822,94.61,501.907,497.468,0.0
55644.0,STARLINK-5502,PAYLOAD,2023-06-14 14:00:01,15.20798914,0.0003205,69.9985,184.1673,275.5298,297.5772,-0.047242,-0.00964215,0.0,0 STARLINK-5502,1 55644U 23021S   23165.58334491 -.00964215  00000-0 -47242-1 0  9995,2 55644  69.9985 184.1673 0003205 275.5298 297.5772 15.20798914 18813,6881.567,94.687,505.637,501.226,0.0
55644.0,STARLINK-5502,PAYLOAD,2023-06-14 22:00:00,15.20085835,0.0003234,69.9986,183.2977,268.6286,328.4953,-0.042423,-0.00845786,0.0,0 STARLINK-5502,1 55644U 23021S   23165.91667824 -.00845786  00000-0 -42423-1 0  9998,2 55644  69.9986 183.2977 0003234 268.6286 328.4953 15.20085835  1305,6883.718,94.731,507.81,503.357,0.0
55644.0,STARLINK-5502,PAYLOAD,2023-06-15 06:00:00,15.19454973,0.0003269,69.9986,182.429,271.0214,349.3204,-0.046535,-0.0091684,0.0,0 STARLINK-5502,1 55644U 23021S   23166.25001157 -.00916840  00000-0 -46535-1 0  9995,2 55644  69.9986 182.4290 0003269 271.0214 349.3204 15.19454973 18918,6885.624,94.771,509.74,505.238,0.0
55644.0,STARLINK-5502,PAYLOAD,2023-06-15 14:00:01,15.18841504,0.0003251,69.9981,181.561,272.5095,10.2471,-0.050124,-0.00966102,0.0,0 STARLINK-5502,1 55644U 23021S   23166.58334491 -.00966102  00000-0 -50124-1 0  9996,2 55644  69.9981 181.5610 0003251 272.5095  10.2471 15.18841504  1307,6887.478,94.809,511.582,507.104,0.0
55644.0,STARLINK-5502,PAYLOAD,2023-06-15 20:00:01,15.18285635,0.000312,69.9984,180.9105,267.3866,301.7039,-0.044572,-0.0085337,0.0,0 STARLINK-5502,1 55644U 23021S   23166.83334491 -.00853370  00000-0 -44572-1 0  9996,2 55644  69.9984 180.9105 0003120 267.3866 301.7039 15.18285635  1300,6889.159,94.844,513.173,508.874,0.0
55644.0,STARLINK-5502,PAYLOAD,2023-06-16 06:00:00,15.17496378,0.0003323,69.9983,179.8279,270.788,54.5091,-0.048982,-0.00912224,0.0,0 STARLINK-5502,1 55644U 23021S   23167.25001157 -.00912224  00000-0 -48982-1 0  9996,2 55644  69.9983 179.8279 0003323 270.7880  54.5091 15.17496378 19078,6891.547,94.893,515.702,511.122,0.0
55644.0,STARLINK-5502,PAYLOAD,2023-06-16 14:00:01,15.16884114,0.0003345,69.998,178.9624,273.8081,71.5573,-0.053044,-0.00966246,0.0,0 STARLINK-5502,1 55644U 23021S   23167.58334491 -.00966246  00000-0 -53044-1 0  9990,2 55644  69.9980 178.9624 0003345 273.8081  71.5573 15.16884114  1309,6893.401,94.931,517.572,512.961,0.0
55644.0,STARLINK-5502,PAYLOAD,2023-06-16 22:00:00,15.16182098,0.0003363,69.9982,178.098,267.4961,97.1874,-0.048365,-0.00870473,0.0,0 STARLINK-5502,1 55644U 23021S   23167.91667824 -.00870473  00000-0 -48365-1 0  9992,2 55644  69.9982 178.0980 0003363 267.4961  97.1874 15.16182098  1303,6895.529,94.975,519.713,515.075,0.0
55644.0,STARLINK-5502,PAYLOAD,2023-06-17 06:00:02,15.15536494,0.0003345,69.9983,177.2344,272.4979,110.7782,-0.051507,-0.0090729,0.0,0 STARLINK-5502,1 55644U 23021S   23168.25002315 -.00907290  00000-0 -51507-1 0  9998,2 55644  69.9983 177.2344 0003345 272.4979 110.7782 15.15536494 19226,6897.487,95.016,521.66,517.045,0.0
55644.0,STARLINK-5502,PAYLOAD,2023-06-17 14:00:01,15.14927572,0.0003288,69.9979,176.3716,275.1532,125.7804,-0.056146,-0.00967119,0.0,0 STARLINK-5502,1 55644U 23021S   23168.58334491 -.00967119  00000-0 -56146-1 0  9997,2 55644  69.9979 176.3716 0003288 275.1532 125.7804 15.14927572  1306,6899.335,95.054,523.469,518.932,0.0
55644.0,STARLINK-5502,PAYLOAD,2023-06-17 22:00:01,15.14228798,0.0003287,69.9982,175.5098,267.4911,150.4753,-0.051449,-0.00875595,0.0,0 STARLINK-5502,1 55644U 23021S   23168.91668981 -.00875595  00000-0 -51449-1 0  9995,2 55644  69.9982 175.5098 0003287 267.4911 150.4753 15.14228798  1300,6901.458,95.098,525.591,521.054,0.0
55644.0,STARLINK-5502,PAYLOAD,2023-06-18 06:00:00,15.13574561,0.0003254,69.9983,174.6489,270.3836,163.7058,-0.053955,-0.00899615,0.0,0 STARLINK-5502,1 55644U 23021S   23169.25001157 -.00899615  00000-0 -53955-1 0  9992,2 55644  69.9983 174.6489 0003254 270.3836 163.7058 15.13574561 19370,6903.446,95.139,527.558,523.065,0.0
55644.0,STARLINK-5502,PAYLOAD,2023-06-18 10:26:48,15.15025588,0.0003377,69.998,174.1757,281.3998,78.6791,-0.014423,-0.00260776,0.0,0 STARLINK-5502,1 55644U 23021S   23169.43527850 -.00260776  00000-0 -14423-1 0  9992,2 55644  69.9980 174.1757 0003377 281.3998  78.6791 15.15025588 19704,6899.038,95.048,523.233,518.573,0.0
55644.0,STARLINK-5502,PAYLOAD,2023-06-18 22:00:00,15.12276659,0.0003201,69.9984,172.9295,267.6223,196.46,-0.054913,-0.00883998,0.0,0 STARLINK-5502,1 55644U 23021S   23169.91667824 -.00883998  00000-0 -54913-1 0  9996,2 55644  69.9984 172.9295 0003201 267.6223 196.4600 15.12276659 19471,6907.396,95.221,531.472,527.05,0.0
55644.0,STARLINK-5502,PAYLOAD,2023-06-19 14:00:01,15.11020543,0.0003095,69.9983,171.2136,273.239,217.7081,-0.063532,-0.00979527,0.0,0 STARLINK-5502,1 55644U 23021S   23170.58334491 -.00979527  00000-0 -63532-1 0  9993,2 55644  69.9983 171.2136 0003095 273.2390 217.7081 15.11020543 19574,6911.223,95.3,535.227,530.949,0.0
55644.0,STARLINK-5502,PAYLOAD,2023-06-19 22:00:00,15.10325932,0.0003139,69.9986,170.3571,267.2592,235.9611,-0.058698,-0.00894229,0.0,0 STARLINK-5502,1 55644U 23021S   23170.91667824 -.00894229  00000-0 -58698-1 0  9991,2 55644  69.9986 170.3571 0003139 267.2592 235.9611 15.10325932  1308,6913.342,95.344,537.377,533.037,0.0
